{
  "type": "FeatureCollection",
  "features": [
    {
      "type": "Feature",
      "properties": {
        "norad_id": 33972,
        "name": "COSMOS 2251 DEB",
        "group": "cosmos-2251-debris",
        "lat": -30.39474433046438,
        "lon": 175.21197813196443,
        "alt_km": 695.5414105654845,
        "timestamp": "2025-12-15T20:48:54.277582+00:00",
        "meta_object_name": "COSMOS 2251 DEB",
        "meta_object_id": "1993-036FF",
        "meta_epoch": "2025-12-14T21:51:20.079648",
        "meta_mean_motion": 14.36241441,
        "meta_eccentricity": 0.01233925,
        "meta_inclination": 73.9944,
        "meta_ra_of_asc_node": 186.6661,
        "meta_arg_of_pericenter": 353.9675,
        "meta_mean_anomaly": 70.6039,
        "meta_ephemeris_type": 0,
        "meta_classification_type": "U",
        "meta_norad_cat_id": 33972,
        "meta_element_set_no": 999,
        "meta_rev_at_epoch": 87105,
        "meta_bstar": 0.00088550662,
        "meta_mean_motion_dot": 2.793e-05,
        "meta_mean_motion_ddot": 0,
        "tle_line1": "1 33972U 93036FF  25348.91064907  .00002793  00000+0  88551-3 0  9993",
        "tle_line2": "2 33972  73.9944 186.6661 0123392 353.9675  70.6039 14.36241441871050"
      },
      "geometry": {
        "type": "Point",
        "coordinates": [
          175.21197813196443,
          -30.39474433046438
        ]
      }
    },
    {
      "type": "Feature",
      "properties": {
        "norad_id": 33973,
        "name": "COSMOS 2251 DEB",
        "group": "cosmos-2251-debris",
        "lat": -2.1116160878710666,
        "lon": -82.33987560450956,
        "alt_km": 745.0858138015374,
        "timestamp": "2025-12-15T20:48:54.277592+00:00",
        "meta_object_name": "COSMOS 2251 DEB",
        "meta_object_id": "1993-036FG",
        "meta_epoch": "2025-12-14T17:55:57.692928",
        "meta_mean_motion": 14.45393336,
        "meta_eccentricity": 0.00473696,
        "meta_inclination": 74.0085,
        "meta_ra_of_asc_node": 99.1448,
        "meta_arg_of_pericenter": 277.1978,
        "meta_mean_anomaly": 199.4389,
        "meta_ephemeris_type": 0,
        "meta_classification_type": "U",
        "meta_norad_cat_id": 33973,
        "meta_element_set_no": 999,
        "meta_rev_at_epoch": 88629,
        "meta_bstar": 0.00018268144,
        "meta_mean_motion_dot": 6.23e-06,
        "meta_mean_motion_ddot": 0,
        "tle_line1": "1 33973U 93036FG  25348.74719552  .00000623  00000+0  18268-3 0  9996",
        "tle_line2": "2 33973  74.0085  99.1448 0047369 277.1978 199.4389 14.45393336886293"
      },
      "geometry": {
        "type": "Point",
        "coordinates": [
          -82.33987560450956,
          -2.1116160878710666
        ]
      }
    },
    {
      "type": "Feature",
      "properties": {
        "norad_id": 33975,
        "name": "COSMOS 2251 DEB",
        "group": "cosmos-2251-debris",
        "lat": -18.38492671791846,
        "lon": 73.4123174463699,
        "alt_km": 983.5733947809085,
        "timestamp": "2025-12-15T20:48:54.277601+00:00",
        "meta_object_name": "COSMOS 2251 DEB",
        "meta_object_id": "1993-036FJ",
        "meta_epoch": "2025-12-14T22:37:22.649664",
        "meta_mean_motion": 14.00529184,
        "meta_eccentricity": 0.01912538,
        "meta_inclination": 73.8021,
        "meta_ra_of_asc_node": 80.5809,
        "meta_arg_of_pericenter": 213.1379,
        "meta_mean_anomaly": 145.7657,
        "meta_ephemeris_type": 0,
        "meta_classification_type": "U",
        "meta_norad_cat_id": 33975,
        "meta_element_set_no": 999,
        "meta_rev_at_epoch": 85860,
        "meta_bstar": 0.00063338495,
        "meta_mean_motion_dot": 1.076e-05,
        "meta_mean_motion_ddot": 0,
        "tle_line1": "1 33975U 93036FJ  25348.94262326  .00001076  00000+0  63338-3 0  9993",
        "tle_line2": "2 33975  73.8021  80.5809 0191253 213.1379 145.7657 14.00529184858603"
      },
      "geometry": {
        "type": "Point",
        "coordinates": [
          73.4123174463699,
          -18.38492671791846
        ]
      }
    },
    {
      "type": "Feature",
      "properties": {
        "norad_id": 33980,
        "name": "COSMOS 2251 DEB",
        "group": "cosmos-2251-debris",
        "lat": 65.46100800729717,
        "lon": -165.435382750234,
        "alt_km": 690.3880297613878,
        "timestamp": "2025-12-15T20:48:54.277612+00:00",
        "meta_object_name": "COSMOS 2251 DEB",
        "meta_object_id": "1993-036FP",
        "meta_epoch": "2025-12-14T15:23:06.211104",
        "meta_mean_motion": 14.58666375,
        "meta_eccentricity": 0.0028586,
        "meta_inclination": 74.022,
        "meta_ra_of_asc_node": 55.7721,
        "meta_arg_of_pericenter": 200.6922,
        "meta_mean_anomaly": 311.805,
        "meta_ephemeris_type": 0,
        "meta_classification_type": "U",
        "meta_norad_cat_id": 33980,
        "meta_element_set_no": 999,
        "meta_rev_at_epoch": 88822,
        "meta_bstar": 0.00064393536,
        "meta_mean_motion_dot": 2.99e-05,
        "meta_mean_motion_ddot": 0,
        "tle_line1": "1 33980U 93036FP  25348.64104411  .00002990  00000+0  64394-3 0  9995",
        "tle_line2": "2 33980  74.0220  55.7721 0028586 200.6922 311.8050 14.58666375888224"
      },
      "geometry": {
        "type": "Point",
        "coordinates": [
          -165.435382750234,
          65.46100800729717
        ]
      }
    },
    {
      "type": "Feature",
      "properties": {
        "norad_id": 33982,
        "name": "COSMOS 2251 DEB",
        "group": "cosmos-2251-debris",
        "lat": -18.749539539249962,
        "lon": -11.58450194995538,
        "alt_km": 667.9515619977537,
        "timestamp": "2025-12-15T20:48:54.277622+00:00",
        "meta_object_name": "COSMOS 2251 DEB",
        "meta_object_id": "1993-036FR",
        "meta_epoch": "2025-12-14T19:23:51.689760",
        "meta_mean_motion": 14.60221254,
        "meta_eccentricity": 0.00751304,
        "meta_inclination": 74.071,
        "meta_ra_of_asc_node": 355.9953,
        "meta_arg_of_pericenter": 39.8742,
        "meta_mean_anomaly": 136.466,
        "meta_ephemeris_type": 0,
        "meta_classification_type": "U",
        "meta_norad_cat_id": 33982,
        "meta_element_set_no": 999,
        "meta_rev_at_epoch": 89189,
        "meta_bstar": 0.00044167557,
        "meta_mean_motion_dot": 2.185e-05,
        "meta_mean_motion_ddot": 0,
        "tle_line1": "1 33982U 93036FR  25348.80823715  .00002185  00000+0  44168-3 0  9993",
        "tle_line2": "2 33982  74.0710 355.9953 0075130  39.8742 136.4660 14.60221254891892"
      },
      "geometry": {
        "type": "Point",
        "coordinates": [
          -11.58450194995538,
          -18.749539539249962
        ]
      }
    },
    {
      "type": "Feature",
      "properties": {
        "norad_id": 33983,
        "name": "COSMOS 2251 DEB",
        "group": "cosmos-2251-debris",
        "lat": 13.662352851925558,
        "lon": -42.81453869564102,
        "alt_km": 720.944014863062,
        "timestamp": "2025-12-15T20:48:54.277631+00:00",
        "meta_object_name": "COSMOS 2251 DEB",
        "meta_object_id": "1993-036FS",
        "meta_epoch": "2025-12-14T21:37:33.108960",
        "meta_mean_motion": 14.50680531,
        "meta_eccentricity": 0.00213141,
        "meta_inclination": 74.0492,
        "meta_ra_of_asc_node": 142.9861,
        "meta_arg_of_pericenter": 245.7957,
        "meta_mean_anomaly": 276.1434,
        "meta_ephemeris_type": 0,
        "meta_classification_type": "U",
        "meta_norad_cat_id": 33983,
        "meta_element_set_no": 999,
        "meta_rev_at_epoch": 88660,
        "meta_bstar": 0.0004932444,
        "meta_mean_motion_dot": 1.916e-05,
        "meta_mean_motion_ddot": 0,
        "tle_line1": "1 33983U 93036FS  25348.90107765  .00001916  00000+0  49324-3 0  9995",
        "tle_line2": "2 33983  74.0492 142.9861 0021314 245.7957 276.1434 14.50680531886603"
      },
      "geometry": {
        "type": "Point",
        "coordinates": [
          -42.81453869564102,
          13.662352851925558
        ]
      }
    },
    {
      "type": "Feature",
      "properties": {
        "norad_id": 33984,
        "name": "COSMOS 2251 DEB",
        "group": "cosmos-2251-debris",
        "lat": 73.89274533776346,
        "lon": 64.28661423275484,
        "alt_km": 665.2237317806394,
        "timestamp": "2025-12-15T20:48:54.277641+00:00",
        "meta_object_name": "COSMOS 2251 DEB",
        "meta_object_id": "1993-036FT",
        "meta_epoch": "2025-12-14T17:22:45.789312",
        "meta_mean_motion": 14.66385523,
        "meta_eccentricity": 0.00230242,
        "meta_inclination": 74.0096,
        "meta_ra_of_asc_node": 343.27,
        "meta_arg_of_pericenter": 180.896,
        "meta_mean_anomaly": 355.2719,
        "meta_ephemeris_type": 0,
        "meta_classification_type": "U",
        "meta_norad_cat_id": 33984,
        "meta_element_set_no": 999,
        "meta_rev_at_epoch": 89095,
        "meta_bstar": 0.00072593631,
        "meta_mean_motion_dot": 3.999e-05,
        "meta_mean_motion_ddot": 0,
        "tle_line1": "1 33984U 93036FT  25348.72414108  .00003999  00000+0  72594-3 0  9996",
        "tle_line2": "2 33984  74.0096 343.2700 0023024 180.8960 355.2719 14.66385523890953"
      },
      "geometry": {
        "type": "Point",
        "coordinates": [
          64.28661423275484,
          73.89274533776346
        ]
      }
    }
  ]
}